NORAD_CAT_ID,OBJECT_NAME,OBJECT_TYPE,EPOCH,MEAN_MOTION,ECCENTRICITY,INCLINATION,RA_OF_ASC_NODE,ARG_OF_PERICENTER,MEAN_ANOMALY,BSTAR,MEAN_MOTION_DOT,MEAN_MOTION_DDOT,TLE_LINE0,TLE_LINE1,TLE_LINE2,SEMIMAJOR_AXIS,PERIOD,APOGEE,PERIGEE,DECAYED
54093.0,STARLINK-5213,PAYLOAD,2024-07-13 05:21:02,15.0883838,0.0001418,53.2167,167.4267,94.5796,265.5358,3.5417e-05,2.76e-06,0.0,0 STARLINK-5213,1 54093U 22136AU  24195.22294159  .00000276  00000-0  35417-4 0  9999,2 54093  53.2167 167.4267 0001418  94.5796 265.5358 15.08838380 96209,6917.885,95.438,540.731,538.769,0.0
54093.0,STARLINK-5213,PAYLOAD,2024-07-13 08:31:48,15.08838433,0.0001376,53.2165,166.832,94.284,265.8309,3.1553e-05,2.14e-06,0.0,0 STARLINK-5213,1 54093U 22136AU  24195.35542182  .00000214  00000-0  31553-4 0  9994,2 54093  53.2165 166.8320 0001376  94.2840 265.8309 15.08838433 95757,6917.885,95.438,540.702,538.798,0.0
54093.0,STARLINK-5213,PAYLOAD,2024-07-13 22:50:17,15.08835386,0.0001366,53.2165,164.1558,94.988,265.1268,2.6084e-05,1.27e-06,0.0,0 STARLINK-5213,1 54093U 22136AU  24195.95158599  .00000127  00000-0  26084-4 0  9991,2 54093  53.2165 164.1558 0001366  94.9880 265.1268 15.08835386 95842,6917.894,95.438,540.704,538.815,0.0
54093.0,STARLINK-5213,PAYLOAD,2024-07-14 06:47:12,15.08842194,0.0001477,53.2176,162.6714,99.5653,260.5506,5.4744e-05,5.83e-06,0.0,0 STARLINK-5213,1 54093U 22136AU  24196.28278178  .00000583  00000-0  54744-4 0  9994,2 54093  53.2176 162.6714 0001477  99.5653 260.5506 15.08842194 96360,6917.874,95.437,540.76,538.717,0.0
54093.0,STARLINK-5213,PAYLOAD,2024-07-14 14:44:08,15.08841374,0.0001385,53.2171,161.1831,91.8593,268.2558,4.0396e-05,3.55e-06,0.0,0 STARLINK-5213,1 54093U 22136AU  24196.61398258  .00000355  00000-0  40396-4 0  9998,2 54093  53.2171 161.1831 0001385  91.8593 268.2558 15.08841374 95949,6917.876,95.437,540.699,538.783,0.0
54093.0,STARLINK-5213,PAYLOAD,2024-07-15 14:34:55,15.08842076,0.0001343,53.2174,156.7226,89.2769,270.8377,4.2917e-05,3.95e-06,0.0,0 STARLINK-5213,1 54093U 22136AU  24197.60758394  .00000395  00000-0  42917-4 0  9994,2 54093  53.2174 156.7226 0001343  89.2769 270.8377 15.08842076 96095,6917.874,95.437,540.668,538.81,0.0
54093.0,STARLINK-5213,PAYLOAD,2024-07-16 04:53:23,15.08842351,0.000138,53.2169,154.0456,89.8555,270.2596,3.1251e-05,2.09e-06,0.0,0 STARLINK-5213,1 54093U 22136AU  24198.20374463  .00000209  00000-0  31251-4 0  9995,2 54093  53.2169 154.0456 0001380  89.8555 270.2596 15.08842351 96188,6917.873,95.437,540.693,538.784,0.0
54093.0,STARLINK-5213,PAYLOAD,2024-07-17 03:08:47,15.08841412,0.0001478,53.2178,149.8815,87.0941,273.022,6.4777e-07,-2.78e-06,0.0,0 STARLINK-5213,1 54093U 22136AU  24199.13110776 -.00000278  00000-0  64777-6 0  9991,2 54093  53.2178 149.8815 0001478  87.0941 273.0220 15.08841412 96795,6917.876,95.437,540.764,538.719,0.0
54093.0,STARLINK-5213,PAYLOAD,2024-07-17 14:16:29,15.08843408,0.0001481,53.216,147.8014,86.9422,273.174,7.1263e-05,8.46e-06,0.0,0 STARLINK-5213,1 54093U 22136AU  24199.59478548  .00000846  00000-0  71263-4 0  9991,2 54093  53.2160 147.8014 0001481  86.9422 273.1740 15.08843408 96392,6917.87,95.437,540.76,538.71,0.0
54093.0,STARLINK-5213,PAYLOAD,2024-07-18 06:10:20,15.08852467,0.0001669,53.2186,144.8248,104.8045,255.3132,8.9959e-05,1.144e-05,0.0,0 STARLINK-5213,1 54093U 22136AU  24200.25717925  .00001144  00000-0  89959-4 0  9995,2 54093  53.2186 144.8248 0001669 104.8045 255.3132 15.08852467 96960,6917.842,95.437,540.862,538.553,0.0
54093.0,STARLINK-5213,PAYLOAD,2024-07-19 02:50:21,15.08843847,0.0001442,53.2171,140.9531,79.7632,280.3523,1.874e-05,1e-07,0.0,0 STARLINK-5213,1 54093U 22136AU  24201.11830795  .00000010  00000-0  18740-4 0  9993,2 54093  53.2171 140.9531 0001442  79.7632 280.3523 15.08843847 97096,6917.869,95.437,540.731,538.736,0.0
54093.0,STARLINK-5213,PAYLOAD,2024-07-20 12:13:27,15.08847558,0.0001251,53.2159,134.7192,104.0484,256.0647,-3.9535e-05,-9.17e-06,0.0,0 STARLINK-5213,1 54093U 22136AU  24202.50934567 -.00000917  00000-0 -39535-4 0  9992,2 54093  53.2159 134.7192 0001251 104.0484 256.0647 15.08847558 97305,6917.857,95.437,540.588,538.857,0.0
54093.0,STARLINK-5213,PAYLOAD,2024-07-21 04:07:21,15.08816934,0.000115,53.2173,131.7437,98.6467,261.4655,-0.00010753,-1.998e-05,0.0,0 STARLINK-5213,1 54093U 22136AU  24203.17177469 -.00001998  00000-0 -10753-3 0  9996,2 54093  53.2173 131.7437 0001150  98.6467 261.4655 15.08816934 97401,6917.951,95.439,540.611,539.02,0.0
54093.0,STARLINK-5213,PAYLOAD,2024-07-22 03:58:05,15.08858539,0.0001137,53.2162,127.2863,117.5051,242.6057,0.00019956,2.891e-05,0.0,0 STARLINK-5213,1 54093U 22136AU  24204.16534496  .00002891  00000-0  19956-3 0  9998,2 54093  53.2162 127.2863 0001137 117.5051 242.6057 15.08858539 97557,6917.824,95.436,540.475,538.902,0.0
54093.0,STARLINK-5213,PAYLOAD,2024-07-22 23:02:43,15.08840824,0.0001381,53.2175,123.7149,131.4203,228.6908,0.00029864,4.468e-05,0.0,0 STARLINK-5213,1 54093U 22136AU  24204.96023068  .00004468  00000-0  29864-3 0  9995,2 54093  53.2175 123.7149 0001381 131.4203 228.6908 15.08840824 97203,6917.878,95.438,540.698,538.788,0.0
54093.0,STARLINK-5213,PAYLOAD,2024-07-23 02:13:30,15.08845752,0.0001075,53.217,123.1193,66.47,293.6405,0.00032082,4.822e-05,0.0,0 STARLINK-5213,1 54093U 22136AU  24205.09271062  .00004822  00000-0  32082-3 0  9999,2 54093  53.2170 123.1193 0001075  66.4700 293.6405 15.08845752 97692,6917.863,95.437,540.471,538.984,0.0
54093.0,STARLINK-5213,PAYLOAD,2024-07-23 11:45:49,15.08836275,8.91e-05,53.2178,121.3365,91.6101,268.4993,0.00021765,3.178e-05,0.0,0 STARLINK-5213,1 54093U 22136AU  24205.49015899  .00003178  00000-0  21765-3 0  9996,2 54093  53.2178 121.3365 0000891  91.6101 268.4993 15.08836275 97750,6917.892,95.438,540.373,539.14,0.0
54093.0,STARLINK-5213,PAYLOAD,2024-07-23 22:53:32,15.08845177,0.0001464,53.2166,119.2544,102.3736,257.742,-0.00014421,-2.583e-05,0.0,0 STARLINK-5213,1 54093U 22136AU  24205.95384350 -.00002583  00000-0 -14421-3 0  9990,2 54093  53.2166 119.2544 0001464 102.3736 257.7420 15.08845177 97356,6917.865,95.437,540.742,538.717,0.0
54093.0,STARLINK-5213,PAYLOAD,2024-07-24 03:39:41,15.08846564,0.0001033,53.2164,118.3617,123.6706,236.4384,-0.00010458,-1.952e-05,0.0,0 STARLINK-5213,1 54093U 22136AU  24206.15255898 -.00001952  00000-0 -10458-3 0  9992,2 54093  53.2164 118.3617 0001033 123.6706 236.4384 15.08846564 97387,6917.86,95.437,540.44,539.011,0.0
54093.0,STARLINK-5213,PAYLOAD,2024-07-24 17:58:09,15.08852522,0.0001074,53.2163,115.6854,139.7033,220.4039,-0.0001189,-2.18e-05,0.0,0 STARLINK-5213,1 54093U 22136AU  24206.74871576 -.00002180  00000-0 -11890-3 0  9999,2 54093  53.2163 115.6854 0001074 139.7033 220.4039 15.08852522 97948,6917.842,95.437,540.45,538.964,0.0
54093.0,STARLINK-5213,PAYLOAD,2024-07-24 22:44:18,15.08853563,8.79e-05,53.2165,114.7922,128.4494,231.6577,-5.6297e-05,-1.184e-05,0.0,0 STARLINK-5213,1 54093U 22136AU  24206.94743115 -.00001184  00000-0 -56297-4 0  9992,2 54093  53.2165 114.7922 0000879 128.4494 231.6577 15.08853563 97503,6917.839,95.437,540.312,539.096,0.0
54093.0,STARLINK-5213,PAYLOAD,2024-07-25 00:19:41,15.08854099,8.44e-05,53.2155,114.5003,88.982,271.1268,-5.1207e-05,-1.103e-05,0.0,0 STARLINK-5213,1 54093U 22136AU  24207.01367206 -.00001103  00000-0 -51207-4 0  9991,2 54093  53.2155 114.5003 0000844  88.9820 271.1268 15.08854099 97517,6917.837,95.437,540.286,539.118,0.0
54093.0,STARLINK-5213,PAYLOAD,2024-07-25 22:35:06,15.08827549,9.93e-05,53.2152,110.3369,69.3054,290.8044,0.00012306,1.671e-05,0.0,0 STARLINK-5213,1 54093U 22136AU  24207.94104492  .00001671  00000-0  12306-3 0  9993,2 54093  53.2152 110.3369 0000993  69.3054 290.8044 15.08827549 97655,6917.918,95.438,540.47,539.096,0.0
54093.0,STARLINK-5213,PAYLOAD,2024-07-26 03:21:15,15.08836213,8.02e-05,53.2166,109.4394,97.3853,262.7231,6.4553e-05,7.4e-06,0.0,0 STARLINK-5213,1 54093U 22136AU  24208.13976097  .00000740  00000-0  64553-4 0  9991,2 54093  53.2166 109.4394 0000802  97.3853 262.7231 15.08836213 98154,6917.892,95.438,540.312,539.202,0.0
54093.0,STARLINK-5213,PAYLOAD,2024-07-27 09:33:33,15.08855629,0.0001069,53.2185,103.791,109.2869,250.8239,4.2674e-05,3.92e-06,0.0,0 STARLINK-5213,1 54093U 22136AU  24209.39830402  .00000392  00000-0  42674-4 0  9992,2 54093  53.2185 103.7910 0001069 109.2869 250.8239 15.08855629 98341,6917.833,95.437,540.437,538.958,0.0
54093.0,STARLINK-5213,PAYLOAD,2024-07-27 22:16:40,15.08826802,0.0001412,53.218,101.4088,122.7651,237.3477,-2.1484e-05,-6.3e-06,0.0,0 STARLINK-5213,1 54093U 22136AU  24209.92824582 -.00000630  00000-0 -21484-4 0  9996,2 54093  53.2180 101.4088 0001412 122.7651 237.3477 15.08826802 97959,6917.921,95.438,540.763,538.809,0.0
54093.0,STARLINK-5213,PAYLOAD,2024-07-28 20:32:04,15.08823785,0.0001459,53.2188,97.2525,105.1688,254.9466,0.00018859,2.713e-05,0.0,0 STARLINK-5213,1 54093U 22136AU  24210.85560359  .00002713  00000-0  18859-3 0  9992,2 54093  53.2188  97.2525 0001459 105.1688 254.9466 15.08823785 98569,6917.93,95.439,540.804,538.786,0.0
54093.0,STARLINK-5213,PAYLOAD,2024-07-28 22:07:27,15.08825042,0.0001462,53.2186,96.9551,105.0898,255.0256,0.00020058,2.904e-05,0.0,0 STARLINK-5213,1 54093U 22136AU  24210.92184365  .00002904  00000-0  20058-3 0  9995,2 54093  53.2186  96.9551 0001462 105.0898 255.0256 15.08825042 98105,6917.926,95.439,540.803,538.78,0.0
54093.0,STARLINK-5213,PAYLOAD,2024-07-29 09:15:09,15.08813938,0.0001242,53.2181,94.8735,104.028,256.085,0.00051059,7.842e-05,0.0,0 STARLINK-5213,1 54093U 22136AU  24211.38552569  .00007842  00000-0  51059-3 0  9992,2 54093  53.2181  94.8735 0001242 104.0280 256.0850 15.08813938 98170,6917.96,95.439,540.684,538.966,0.0
54093.0,STARLINK-5213,PAYLOAD,2024-07-29 21:58:14,15.08838647,0.0001341,53.2182,92.4949,99.8128,260.3015,0.00020678,3.004e-05,0.0,0 STARLINK-5213,1 54093U 22136AU  24211.91544536  .00003004  00000-0  20678-3 0  9995,2 54093  53.2182  92.4949 0001341  99.8128 260.3015 15.08838647 98258,6917.885,95.438,540.677,538.822,0.0
